STARLINK-2151
1 18556C 21041D   21326.13609935  .00000143  00000-0  95896-5 0  3260
2 18556  53.0566 343.1215 0001518  60.0522 333.2765 15.06398094    19
